PERSEUS-M1              
1 40039U 14033AF  26136.25622593  .00001537  00000+0  14405-3 0  9991
2 40039  97.9633  79.8703 0012795  49.1517 311.0810 14.95517821645866
POLYITAN-1              
1 40042U 14033AJ  26135.99580279  .00013866  00000+0  44997-3 0  9996
2 40042  98.0960 159.2400 0005497 252.3119 107.7520 15.32082668648666
TIGRISAT                
1 40043U 14033AK  26135.84195804  .00001312  00000+0  15681-3 0  9998
2 40043  97.7794 286.6058 0049527 179.1372 180.9937 14.85014795640829
AEROCUBE 6A             
1 40045U 14033AM  26135.89225654  .00004337  00000+0  36880-3 0  9996
2 40045  97.7218 303.1995 0040276 122.3298 238.1834 14.97732028641783
AEROCUBE 6B             
1 40046U 14033AN  26136.05922314  .00004432  00000+0  36377-3 0  9990
2 40046  97.7169 303.0891 0038244 115.2358 245.2837 14.99152653641945
CANX-4                  
1 40055U 14034C   26136.06466797  .00000550  00000+0  77942-4 0  9991
2 40055  98.3165  10.1932 0014017 112.0914 248.1787 14.81200985639772
CANX-5                  
1 40056U 14034D   26136.19857730  .00000598  00000+0  84053-4 0  9990
2 40056  98.3165  10.3736 0014021 111.8663 248.4041 14.81218497630606
UKUBE-1                 
1 40074U 14037F   26136.23085298  .00005919  00000+0  33960-3 0  9992
2 40074  98.4239 136.1608 0000313 102.2785 257.8479 15.13004390643729
BRITE-PL2 (HEWELIUSZ)   
1 40119U 14049B   26136.23618108  .00001038  00000+0  10161-3 0  9993
2 40119  97.9061 247.9993 0013404 210.7824 149.2611 14.94463659636671
AEROCUBE 5C             
1 40965U 15058B   26136.18459374  .00002005  00000+0  18634-3 0  9993
2 40965  64.7674   2.1350 0129862  75.8714 285.6789 14.91261881360882
AEROCUBE 7              
1 40966U 15058C   26136.13788920  .00003065  00000+0  25356-3 0  9997
2 40966  64.7629 345.1824 0119651  74.5496 286.8796 14.95463608361165
FOX-1A (AO-85)          
1 40967U 15058D   26136.22172180  .00002362  00000+0  21983-3 0  9994
2 40967  64.7769  18.3080 0129097  69.1254 292.3625 14.90770492108801
SINOD-D 1               
1 40968U 15058E   26136.05279726  .00003125  00000+0  25818-3 0  9999
2 40968  64.7764 359.5256 0117606  65.9817 295.3554 14.95641556111850
SNAP-3 ALICE            
1 40970U 15058G   26135.40519863  .00041938  00000+0  63882-3 0  9996
2 40970  64.7533 216.6283 0033029  29.0795 331.2177 15.53625811111786
LMRST-SAT               
1 40971U 15058H   26136.10185616  .00002177  00000+0  20503-3 0  9995
2 40971  64.7774  14.9581 0130882  71.1958 290.3298 14.90394918108773
SNAP-3 EDDIE            
1 40972U 15058J   26136.25641339  .00081894  00000+0  11802-2 0  9995
2 40972  64.7447 204.6684 0033575  32.2391 328.0795 15.54884478114058
PROPCUBE 3              
1 40973U 15058K   26136.21581974  .00002880  00000+0  24643-3 0  9996
2 40973  64.7694 352.4099 0123000  72.6426 288.8097 14.94028318110022
BISONSAT                
1 40974U 15058L   26135.50775613  .00006822  00000+0  34161-3 0  9999
2 40974  64.7595 279.2361 0078725  61.2519 299.6485 15.15498055110665
SNAP-3 JIMI             
1 40975U 15058M   26135.89967011  .00004381  00000+0  30892-3 0  9992
2 40975  64.7653 321.9014 0105028  68.7508 292.4788 15.01951798109374
PROPCUBE 1 (FLORA)      
1 40976U 15058N   26136.16159752  .00001828  00000+0  18151-3 0  9996
2 40976  64.7749  34.4771 0129675  73.4771 288.0539 14.89027766111491
SINOD-D 3               
1 40977U 15058P   26136.10811882  .00002927  00000+0  25481-3 0  9995
2 40977  64.7739  15.9731 0118149  70.9495 290.4372 14.93756261109965
HORYU-4                 
1 41340U 16012D   26135.83926310  .00167311  00000+0  89519-3 0  9994
2 41340  30.9887 313.1283 0005132  49.8161 310.2945 15.78724836565674
RAVAN                   
1 41849U 16067B   26136.21492402  .00044979  00000+0  75609-3 0  9990
2 41849  97.9941  22.1718 0007204 111.7564 248.4454 15.51604589522730
CELTEE 1                
1 41850U 16067C   26136.13713234  .00003595  00000+0  17382-3 0  9995
2 41850  98.0713   0.5205 0001610  56.3346 303.8041 15.19345263521012
OPTICUBE 04             
1 41851U 16067D   26136.06363738  .00001548  00000+0  10085-3 0  9997
2 41851  98.0732 346.6693 0014633 222.4964 137.5131 15.09514135520320
AEROCUBE 8D             
1 41852U 16067E   26136.11754618  .00005489  00000+0  23054-3 0  9993
2 41852  98.0724   3.8552 0002117 228.2398 131.8657 15.23919641521189
AEROCUBE 8C             
1 41853U 16067F   26136.14764940  .00005925  00000+0  24670-3 0  9996
2 41853  98.0595   1.1569 0005797 156.9046 203.2451 15.24159529521187
CORVUS BC2              
1 42846U 17042X   26136.23959817  .00001916  00000+0  13511-3 0  9990
2 42846  97.4038 298.8430 0012153 215.4165 144.6257 15.06078972482252
CORVUS BC1              
1 42847U 17042Y   26136.17140544  .00001822  00000+0  12805-3 0  9994
2 42847  97.4069 299.5706 0011595 190.3498 169.7493 15.06249744482279
MAKERSAT 0              
1 43016U 17073D   26136.22835525  .00022909  00000+0  63874-3 0  9994
2 43016  97.4675  18.5252 0111197  27.7370 332.9741 15.30682537461575
