OBJECT_NAME,OBJECT_ID,EPOCH,MEAN_MOTION,ECCENTRICITY,INCLINATION,RA_OF_ASC_NODE,ARG_OF_PERICENTER,MEAN_ANOMALY,EPHEMERIS_TYPE,CLASSIFICATION_TYPE,NORAD_CAT_ID,ELEMENT_SET_NO,REV_AT_EPOCH,BSTAR,MEAN_MOTION_DOT,MEAN_MOTION_DDOT
PERSEUS-M1,2014-033AF,2026-05-16T06:08:57.920352,14.95517821,.00127956,97.9633,79.8703,49.1517,311.0810,0,U,40039,999,64586,.14404821E-3,.1537E-4,0
POLYITAN-1,2014-033AJ,2026-05-15T23:53:57.361056,15.32082668,.00054973,98.0960,159.2400,252.3119,107.7520,0,U,40042,999,64866,.44997023E-3,.13866E-3,0
TIGRISAT,2014-033AK,2026-05-15T20:12:25.174656,14.85014795,.00495273,97.7794,286.6058,179.1372,180.9937,0,U,40043,999,64082,.15680564E-3,.1312E-4,0
AEROCUBE 6A,2014-033AM,2026-05-15T21:24:50.965056,14.97732028,.00402769,97.7218,303.1995,122.3298,238.1834,0,U,40045,999,64178,.36880382E-3,.4337E-4,0
AEROCUBE 6B,2014-033AN,2026-05-16T01:25:16.879296,14.99152653,.00382447,97.7169,303.0891,115.2358,245.2837,0,U,40046,999,64194,.36376528E-3,.4432E-4,0
CANX-4,2014-034C,2026-05-16T01:33:07.312608,14.81200985,.00140173,98.3165,10.1932,112.0914,248.1787,0,U,40055,999,63977,.77942439E-4,.55E-5,0
CANX-5,2014-034D,2026-05-16T04:45:57.078720,14.81218497,.00140217,98.3165,10.3736,111.8663,248.4041,0,U,40056,999,63060,.84052927E-4,.598E-5,0
UKUBE-1,2014-037F,2026-05-16T05:32:25.697472,15.13004390,.00003131,98.4239,136.1608,102.2785,257.8479,0,U,40074,999,64372,.33959695E-3,.5919E-4,0
BRITE-PL2 (HEWELIUSZ),2014-049B,2026-05-16T05:40:06.045312,14.94463659,.0013404,97.9061,247.9993,210.7824,149.2611,0,U,40119,999,63667,.10161301E-3,.1038E-4,0
AEROCUBE 5C,2015-058B,2026-05-16T04:25:48.899136,14.91261881,.01298621,64.7674,2.1350,75.8714,285.6789,0,U,40965,999,36088,.18633673E-3,.2005E-4,0
AEROCUBE 7,2015-058C,2026-05-16T03:18:33.626880,14.95463608,.01196514,64.7629,345.1824,74.5496,286.8796,0,U,40966,999,36116,.25355542E-3,.3065E-4,0
FOX-1A (AO-85),2015-058D,2026-05-16T05:19:16.763520,14.90770492,.01290975,64.7769,18.3080,69.1254,292.3625,0,U,40967,999,10880,.21983277E-3,.2362E-4,0
SINOD-D 1,2015-058E,2026-05-16T01:16:01.683264,14.95641556,.01176067,64.7764,359.5256,65.9817,295.3554,0,U,40968,999,11185,.25818322E-3,.3125E-4,0
SNAP-3 ALICE,2015-058G,2026-05-15T09:43:29.161632,15.53625811,.00330296,64.7533,216.6283,29.0795,331.2177,0,U,40970,999,11178,.63882482E-3,.41938E-3,0
LMRST-SAT,2015-058H,2026-05-16T02:26:40.372224,14.90394918,.01308823,64.7774,14.9581,71.1958,290.3298,0,U,40971,999,10877,.20502698E-3,.2177E-4,0
SNAP-3 EDDIE,2015-058J,2026-05-16T06:09:14.116896,15.54884478,.00335757,64.7447,204.6684,32.2391,328.0795,0,U,40972,999,11405,.11801667E-2,.81894E-3,0
PROPCUBE 3,2015-058K,2026-05-16T05:10:46.825536,14.94028318,.01230005,64.7694,352.4099,72.6426,288.8097,0,U,40973,999,11002,.24642774E-3,.288E-4,0
BISONSAT,2015-058L,2026-05-15T12:11:10.129632,15.15498055,.00787255,64.7595,279.2361,61.2519,299.6485,0,U,40974,999,11066,.34160834E-3,.6822E-4,0
SNAP-3 JIMI,2015-058M,2026-05-15T21:35:31.497504,15.01951798,.01050286,64.7653,321.9014,68.7508,292.4788,0,U,40975,999,10937,.30892402E-3,.4381E-4,0
PROPCUBE 1 (FLORA),2015-058N,2026-05-16T03:52:42.025728,14.89027766,.01296758,64.7749,34.4771,73.4771,288.0539,0,U,40976,999,11149,.18150859E-3,.1828E-4,0
SINOD-D 3,2015-058P,2026-05-16T02:35:41.466048,14.93756261,.0118149,64.7739,15.9731,70.9495,290.4372,0,U,40977,999,10996,.25481103E-3,.2927E-4,0
HORYU-4,2016-012D,2026-05-15T20:08:32.331840,15.78724836,.00051327,30.9887,313.1283,49.8161,310.2945,0,U,41340,999,56567,.89518659E-3,.167311E-2,0
RAVAN,2016-067B,2026-05-16T05:09:29.435328,15.51604589,.00072047,97.9941,22.1718,111.7564,248.4454,0,U,41849,999,52273,.75609339E-3,.44979E-3,0
CELTEE 1,2016-067C,2026-05-16T03:17:28.234176,15.19345263,.00016106,98.0713,0.5205,56.3346,303.8041,0,U,41850,999,52101,.17381663E-3,.3595E-4,0
OPTICUBE 04,2016-067D,2026-05-16T01:31:38.269632,15.09514135,.0014633,98.0732,346.6693,222.4964,137.5131,0,U,41851,999,52032,.10085186E-3,.1548E-4,0
AEROCUBE 8D,2016-067E,2026-05-16T02:49:15.989952,15.23919641,.00021171,98.0724,3.8552,228.2398,131.8657,0,U,41852,999,52118,.2305369E-3,.5489E-4,0
AEROCUBE 8C,2016-067F,2026-05-16T03:32:36.908160,15.24159529,.00057976,98.0595,1.1569,156.9046,203.2451,0,U,41853,999,52118,.24670076E-3,.5925E-4,0
CORVUS BC2,2017-042X,2026-05-16T05:45:01.281888,15.06078972,.00121538,97.4038,298.8430,215.4165,144.6257,0,U,42846,999,48225,.1351071E-3,.1916E-4,0
CORVUS BC1,2017-042Y,2026-05-16T04:06:49.430016,15.06249744,.00115951,97.4069,299.5706,190.3498,169.7493,0,U,42847,999,48227,.12804902E-3,.1822E-4,0
MAKERSAT 0,2017-073D,2026-05-16T05:28:49.893600,15.30682537,.01111973,97.4675,18.5252,27.7370,332.9741,0,U,43016,999,46157,.63873603E-3,.22909E-3,0
